OBJECT_NAME,OBJECT_ID,EPOCH,MEAN_MOTION,ECCENTRICITY,INCLINATION,RA_OF_ASC_NODE,ARG_OF_PERICENTER,MEAN_ANOMALY,EPHEMERIS_TYPE,CLASSIFICATION_TYPE,NORAD_CAT_ID,ELEMENT_SET_NO,REV_AT_EPOCH,BSTAR,MEAN_MOTION_DOT,MEAN_MOTION_DDOT
EYESAT A (AO-27),1993-061C,2026-06-18T17:57:04.766976,14.30942648,.0009544,98.6880,237.1610,95.7674,264.4597,0,U,22825,999,70722,.44201E-4,.72E-6,0
ITAMSAT (IO-26),1993-061D,2026-06-18T17:26:45.794688,14.31369569,.0010059,98.6828,237.0576,80.9197,279.3124,0,U,22826,999,70753,.4508E-4,.75E-6,0
RADIO ROSTO (RS15),1994-085A,2026-06-18T19:13:32.755584,11.27583485,.0155998,64.8179,300.6061,3.5777,356.6226,0,U,23439,999,29608,-.14248E-3,-.48E-6,0
JAS-2 (FO-29),1996-046B,2026-06-18T20:43:47.097984,13.53274506,.0350921,98.5238,18.5062,92.0938,272.0420,0,U,24278,999,47339,.23419E-4,-.9E-7,0
FORTE,1997-047A,2026-06-18T20:18:19.552896,14.27945656,.0024628,69.9539,10.2742,275.3454,84.4858,0,U,24920,999,49892,.67729E-4,.11E-5,0
TECHSAT 1B (GO-32),1998-043D,2026-06-18T18:00:19.154016,14.24428644,.0001133,99.0067,162.5483,159.7201,200.4022,0,U,25397,999,45155,.35257E-4,.35E-6,0
ISS (ZARYA),1998-067A,2026-06-18T19:14:58.748640,15.49302471,.0004667,51.6331,292.1003,202.2920,157.7867,0,U,25544,999,57200,.15439E-3,.8155E-4,0
IMAGE,2000-017A,2026-06-11T08:17:58.695072,1.68665984,.7436383,94.2241,315.2958,288.4674,8.8959,0,U,26113,999,16140,.22926E-1,.11E-6,0
CLUSTER II-FM7 (SAMBA),2000-041A,2026-06-19T08:52:12.410112,0.44833363,.9058303,149.9200,51.3283,268.5109,359.4853,0,U,26410,999,2032,0,.4714E-4,0
CLUSTER II-FM8 (TANGO),2000-045B,2026-06-15T04:30:08.872416,0.44418308,.90570043,150.1504,51.7507,268.7261,2.8044,0,U,26464,999,2030,0,.11725E-3,0
ODIN,2001-007A,2026-06-18T16:21:46.630080,15.76258882,.0006625,97.3818,210.7208,142.4379,217.7350,0,U,26702,999,38963,.96741E-3,.153947E-2,0
OMNI-M1,2001-026A,2026-06-16T05:01:03.889056,3.92401638,.0014194,44.8307,245.4893,53.4474,306.7446,0,U,26857,999,20553,0,-.1E-7,0
PCSAT (NO-44),2001-043C,2026-06-18T11:40:22.969344,14.31956504,.000608,67.0504,240.9116,264.6354,95.4054,0,U,26931,999,29063,.59455E-4,.76E-6,0
PROBA-1,2001-049B,2026-06-18T20:41:57.028704,15.07497209,.0056497,97.9594,178.4534,116.3541,244.3503,0,U,26958,999,34387,.58473E-4,.848E-5,0
SAUDISAT 1C (SO-50),2002-058C,2026-06-18T08:51:28.340928,14.83049237,.0075194,64.5511,125.3282,262.2562,97.0002,0,U,27607,999,26463,.11046E-3,.788E-5,0
CORIOLIS,2003-001A,2026-06-18T17:56:16.427040,14.19945168,.0013481,98.7124,176.6084,204.0411,156.0138,0,U,27640,999,21444,.53371E-4,.7E-6,0
CUTE-1 (CO-55),2003-031E,2026-06-18T17:21:18.294624,14.24336519,.0009643,98.6736,178.2627,173.5600,186.5705,0,U,27844,999,19189,.11222E-3,.216E-5,0
CUBESAT XI-IV (CO-57),2003-031J,2026-06-17T22:32:30.413760,14.23621196,.0009073,98.6765,177.2007,194.7196,165.3719,0,U,27848,999,19148,.10079477E-3,.186E-5,0
MOZHAETS 4 (RS22),2003-042A,2026-06-18T20:26:14.643168,14.73471325,.0009917,98.3465,354.2570,263.9004,208.4912,0,U,27939,999,21579,.1871E-3,.1161E-4,0
